[Satellite]
VERSION=1.1
NAME=S-Net J
NICKNAME=S-Net J
TLE1=1 43188U 18014J   19311.49465660  .00000764  00000-0  71970-4 0  9998
TLE2=2 43188  97.7010 217.8167 0009450 247.9905 112.0313 14.96704155 96341
STATUS=0
